STARLINK-31707          
1 59736U 24090G   26067.39950523  .00000319  00000+0  21138-4 0  9993
2 59736  43.0032 190.7090 0001848 193.7061 166.3741 15.27582757103245
TEVEL2-7                
1 63238U 25052AE  26068.66113295  .00019244  00000+0  69668-3 0  9998
2 63238  97.4054 324.3041 0008105 124.6830 235.5175 15.28414096 54803
